[{"OBJECT_NAME":"QPS-SAR-5 (TSUKUYOMI-I)","OBJECT_ID":"2023-196A","EPOCH":"2026-03-09T21:54:21.440160","MEAN_MOTION":15.20129575,"ECCENTRICITY":0.00250737,"INCLINATION":42.0101,"RA_OF_ASC_NODE":220.2642,"ARG_OF_PERICENTER":332.3475,"MEAN_ANOMALY":27.6024,"EPHEMERIS_TYPE":0,"CLASSIFICATION_TYPE":"U","NORAD_CAT_ID":58578,"ELEMENT_SET_NO":999,"REV_AT_EPOCH":12312,"BSTAR":0.00079111792,"MEAN_MOTION_DOT":0.00017399,"MEAN_MOTION_DDOT":0},{"OBJECT_NAME":"STARLINK-31597","OBJECT_ID":"2024-068K","EPOCH":"2026-03-09T07:19:40.723680","MEAN_MOTION":15.27578443,"ECCENTRICITY":0.00011514,"INCLINATION":43.0054,"RA_OF_ASC_NODE":36.711,"ARG_OF_PERICENTER":266.8565,"MEAN_ANOMALY":93.2155,"EPHEMERIS_TYPE":0,"CLASSIFICATION_TYPE":"U","NORAD_CAT_ID":59464,"ELEMENT_SET_NO":999,"REV_AT_EPOCH":10841,"BSTAR":-4.08084e-7,"MEAN_MOTION_DOT":-2.73e-6,"MEAN_MOTION_DDOT":0}]
